STARLINK-32369          
1 60917U 24154Q   26068.85831404  .00001232  00000+0  53728-4 0  9990
2 60917  53.1609 282.8579 0000944 114.3494 245.7606 15.30196957 86362
2025-313BC              
1 67298U 25313BC  26068.18968176  .00075331  00000+0  26410-2 0  9997
2 67298  97.3985 144.8110 0008478 328.9209  31.1528 15.29126358  7890
